{"type": "FeatureCollection", "features": [ {"type": "Feature", "properties": {"norad_id": 38953, "name": "BEIDOU-2 G6 (C02)", "group": "beidou", "lat": -2.350062378484849, "lon": -68.82486589096722, "alt_km": 35778.65918790255, "timestamp": "2025-12-26T07:29:18.720870+00:00", "meta": {"OBJECT_NAME": "BEIDOU-2 G6 (C02)", "OBJECT_ID": "2012-059A", "EPOCH": "2025-12-25T19:23:21.831648", "MEAN_MOTION": 1.00274917, "ECCENTRICITY": 0.00079696, "INCLINATION": 3.9805, "RA_OF_ASC_NODE": 75.3821, "ARG_OF_PERICENTER": 293.9957, "MEAN_ANOMALY": 99.9659, "EPHEMERIS_TYPE": 0, "CLASSIFICATION_TYPE": "U", "NORAD_CAT_ID": 38953, "ELEMENT_SET_NO": 999, "REV_AT_EPOCH": 4817, "BSTAR": 0, "MEAN_MOTION_DOT": -1.55e-06, "MEAN_MOTION_DDOT": 0}, "tle": {"line1": "1 38953U 12059A   25359.80789157 -.00000155  00000+0  00000+0 0  9994", "line2": "2 38953   3.9805  75.3821 0007969 293.9957  99.9659  1.00274917 48174"}}, "geometry": {"type": "Point", "coordinates": [-68.82486589096722, -2.350062378484849]}}, {"type": "Feature", "properties": {"norad_id": 40549, "name": "BEIDOU-3S IGSO-1S (C31)", "group": "beidou", "lat": 3.5974981462307203, "lon": -59.40050055619336, "alt_km": 35933.11442923794, "timestamp": "2025-12-26T07:29:18.720882+00:00", "meta": {"OBJECT_NAME": "BEIDOU-3S IGSO-1S (C31)", "OBJECT_ID": "2015-019A", "EPOCH": "2025-12-25T18:51:43.024032", "MEAN_MOTION": 1.00290186, "ECCENTRICITY": 0.00365496, "INCLINATION": 49.5274, "RA_OF_ASC_NODE": 297.5574, "ARG_OF_PERICENTER": 194.2723, "MEAN_ANOMALY": 340.4455, "EPHEMERIS_TYPE": 0, "CLASSIFICATION_TYPE": "U", "NORAD_CAT_ID": 40549, "ELEMENT_SET_NO": 999, "REV_AT_EPOCH": 3933, "BSTAR": 0, "MEAN_MOTION_DOT": -1.76e-06, "MEAN_MOTION_DDOT": 0}, "tle": {"line1": "1 40549U 15019A   25359.78591463 -.00000176  00000+0  00000+0 0  9998", "line2": "2 40549  49.5274 297.5574 0036549 194.2723 340.4455  1.00290186 39339"}}, "geometry": {"type": "Point", "coordinates": [-59.40050055619336, 3.5974981462307203]}}, {"type": "Feature", "properties": {"norad_id": 40748, "name": "BEIDOU-3S M2S (C58)", "group": "beidou", "lat": -52.67917232144349, "lon": -118.53819032236224, "alt_km": 21501.767069548205, "timestamp": "2025-12-26T07:29:18.720893+00:00", "meta": {"OBJECT_NAME": "BEIDOU-3S M2S (C58)", "OBJECT_ID": "2015-037A", "EPOCH": "2025-12-24T19:32:44.901312", "MEAN_MOTION": 1.86229543, "ECCENTRICITY": 0.00118109, "INCLINATION": 55.028, "RA_OF_ASC_NODE": 308.0499, "ARG_OF_PERICENTER": 271.2412, "MEAN_ANOMALY": 88.6304, "EPHEMERIS_TYPE": 0, "CLASSIFICATION_TYPE": "U", "NORAD_CAT_ID": 40748, "ELEMENT_SET_NO": 999, "REV_AT_EPOCH": 7087, "BSTAR": 0, "MEAN_MOTION_DOT": -5.3e-07, "MEAN_MOTION_DDOT": 0}, "tle": {"line1": "1 40748U 15037A   25358.81440858 -.00000053  00000+0  00000+0 0  9997", "line2": "2 40748  55.0280 308.0499 0011810 271.2412  88.6304  1.86229543 70879"}}, "geometry": {"type": "Point", "coordinates": [-118.53819032236224, -52.67917232144349]}}, {"type": "Feature", "properties": {"norad_id": 40749, "name": "BEIDOU-3S M1S (C57)", "group": "beidou", "lat": 38.19679362126855, "lon": 94.58582886352984, "alt_km": 21527.5665350984, "timestamp": "2025-12-26T07:29:18.720904+00:00", "meta": {"OBJECT_NAME": "BEIDOU-3S M1S (C57)", "OBJECT_ID": "2015-037B", "EPOCH": "2025-12-25T01:01:53.071104", "MEAN_MOTION": 1.86253893, "ECCENTRICITY": 0.00036899, "INCLINATION": 55.0241, "RA_OF_ASC_NODE": 308.031, "ARG_OF_PERICENTER": 2.2616, "MEAN_ANOMALY": 357.7473, "EPHEMERIS_TYPE": 0, "CLASSIFICATION_TYPE": "U", "NORAD_CAT_ID": 40749, "ELEMENT_SET_NO": 999, "REV_AT_EPOCH": 7088, "BSTAR": 0, "MEAN_MOTION_DOT": -5.3e-07, "MEAN_MOTION_DDOT": 0}, "tle": {"line1": "1 40749U 15037B   25359.04297536 -.00000053  00000+0  00000+0 0  9997", "line2": "2 40749  55.0241 308.0310 0003689   2.2616 357.7473  1.86253893 70885"}}, "geometry": {"type": "Point", "coordinates": [94.58582886352984, 38.19679362126855]}}, {"type": "Feature", "properties": {"norad_id": 40938, "name": "BEIDOU-3S IGSO-2S (C56)", "group": "beidou", "lat": 30.464357888151525, "lon": -69.00261354011636, "alt_km": 35998.07311353247, "timestamp": "2025-12-26T07:29:18.720916+00:00", "meta": {"OBJECT_NAME": "BEIDOU-3S IGSO-2S (C56)", "OBJECT_ID": "2015-053A", "EPOCH": "2025-12-25T16:15:10.880064", "MEAN_MOTION": 1.00267373, "ECCENTRICITY": 0.006068, "INCLINATION": 49.4905, "RA_OF_ASC_NODE": 260.8539, "ARG_OF_PERICENTER": 188.4891, "MEAN_ANOMALY": 344.6417, "EPHEMERIS_TYPE": 0, "CLASSIFICATION_TYPE": "U", "NORAD_CAT_ID": 40938, "ELEMENT_SET_NO": 999, "REV_AT_EPOCH": 3761, "BSTAR": 0, "MEAN_MOTION_DOT": -1.2e-06, "MEAN_MOTION_DDOT": 0}, "tle": {"line1": "1 40938U 15053A   25359.67720926 -.00000120  00000+0  00000+0 0  9993", "line2": "2 40938  49.4905 260.8539 0060680 188.4891 344.6417  1.00267373 37614"}}, "geometry": {"type": "Point", "coordinates": [-69.00261354011636, 30.464357888151525]}}, {"type": "Feature", "properties": {"norad_id": 41434, "name": "BEIDOU-2 IGSO-6 (C13)", "group": "beidou", "lat": -58.938336075595956, "lon": -66.58578248126739, "alt_km": 35566.71672043518, "timestamp": "2025-12-26T07:29:18.720928+00:00", "meta": {"OBJECT_NAME": "BEIDOU-2 IGSO-6 (C13)", "OBJECT_ID": "2016-021A", "EPOCH": "2025-12-25T02:21:14.682240", "MEAN_MOTION": 1.00290736, "ECCENTRICITY": 0.00608236, "INCLINATION": 59.9818, "RA_OF_ASC_NODE": 39.7747, "ARG_OF_PERICENTER": 230.5129, "MEAN_ANOMALY": 312.5474, "EPHEMERIS_TYPE": 0, "CLASSIFICATION_TYPE": "U", "NORAD_CAT_ID": 41434, "ELEMENT_SET_NO": 999, "REV_AT_EPOCH": 3573, "BSTAR": 0, "MEAN_MOTION_DOT": -1.35e-06, "MEAN_MOTION_DDOT": 0}, "tle": {"line1": "1 41434U 16021A   25359.09808660 -.00000135  00000+0  00000+0 0  9995", "line2": "2 41434  59.9818  39.7747 0060823 230.5129 312.5474  1.00290736 35738"}}, "geometry": {"type": "Point", "coordinates": [-66.58578248126739, -58.938336075595956]}}, {"type": "Feature", "properties": {"norad_id": 41586, "name": "BEIDOU-2 G7 (C03)", "group": "beidou", "lat": -1.6941782516870112, "lon": -42.2697939996405, "alt_km": 35795.20273003791, "timestamp": "2025-12-26T07:29:18.720939+00:00", "meta": {"OBJECT_NAME": "BEIDOU-2 G7 (C03)", "OBJECT_ID": "2016-037A", "EPOCH": "2025-12-25T22:09:08.222976", "MEAN_MOTION": 1.00268204, "ECCENTRICITY": 0.00051777, "INCLINATION": 1.7871, "RA_OF_ASC_NODE": 67.9012, "ARG_OF_PERICENTER": 0.645, "MEAN_ANOMALY": 108.832, "EPHEMERIS_TYPE": 0, "CLASSIFICATION_TYPE": "U", "NORAD_CAT_ID": 41586, "ELEMENT_SET_NO": 999, "REV_AT_EPOCH": 515, "BSTAR": 0, "MEAN_MOTION_DOT": -3.32e-06, "MEAN_MOTION_DDOT": 0}, "tle": {"line1": "1 41586U 16037A   25359.92301184 -.00000332  00000+0  00000+0 0  9990", "line2": "2 41586   1.7871  67.9012 0005177   0.6450 108.8320  1.00268204  5156"}}, "geometry": {"type": "Point", "coordinates": [-42.2697939996405, -1.6941782516870112]}}, {"type": "Feature", "properties": {"norad_id": 43001, "name": "BEIDOU-3 M1 (C19)", "group": "beidou", "lat": 41.567637808483134, "lon": 104.66311449857666, "alt_km": 21532.524179522716, "timestamp": "2025-12-26T07:29:18.720951+00:00", "meta": {"OBJECT_NAME": "BEIDOU-3 M1 (C19)", "OBJECT_ID": "2017-069A", "EPOCH": "2025-12-25T03:49:47.920224", "MEAN_MOTION": 1.86231313, "ECCENTRICITY": 0.0009789, "INCLINATION": 56.5365, "RA_OF_ASC_NODE": 68.8241, "ARG_OF_PERICENTER": 302.2681, "MEAN_ANOMALY": 57.6912, "EPHEMERIS_TYPE": 0, "CLASSIFICATION_TYPE": "U", "NORAD_CAT_ID": 43001, "ELEMENT_SET_NO": 999, "REV_AT_EPOCH": 5536, "BSTAR": 0, "MEAN_MOTION_DOT": -2.5e-07, "MEAN_MOTION_DDOT": 0}, "tle": {"line1": "1 43001U 17069A   25359.15958241 -.00000025  00000+0  00000+0 0  9996", "line2": "2 43001  56.5365  68.8241 0009789 302.2681  57.6912  1.86231313 55361"}}, "geometry": {"type": "Point", "coordinates": [104.66311449857666, 41.567637808483134]}}, {"type": "Feature", "properties": {"norad_id": 43002, "name": "BEIDOU-3 M2 (C20)", "group": "beidou", "lat": 56.339802306010256, "lon": 166.09055273744656, "alt_km": 21532.73720920741, "timestamp": "2025-12-26T07:29:18.720962+00:00", "meta": {"OBJECT_NAME": "BEIDOU-3 M2 (C20)", "OBJECT_ID": "2017-069B", "EPOCH": "2025-12-25T15:14:16.903968", "MEAN_MOTION": 1.86231039, "ECCENTRICITY": 0.0006764, "INCLINATION": 56.5366, "RA_OF_ASC_NODE": 68.8439, "ARG_OF_PERICENTER": 327.6836, "MEAN_ANOMALY": 32.3283, "EPHEMERIS_TYPE": 0, "CLASSIFICATION_TYPE": "U", "NORAD_CAT_ID": 43002, "ELEMENT_SET_NO": 999, "REV_AT_EPOCH": 5536, "BSTAR": 0, "MEAN_MOTION_DOT": -2.7e-07, "MEAN_MOTION_DDOT": 0}, "tle": {"line1": "1 43002U 17069B   25359.63491787 -.00000027  00000+0  00000+0 0  9999", "line2": "2 43002  56.5366  68.8439 0006764 327.6836  32.3283  1.86231039 55361"}}, "geometry": {"type": "Point", "coordinates": [166.09055273744656, 56.339802306010256]}}, {"type": "Feature", "properties": {"norad_id": 43107, "name": "BEIDOU-3 M7 (C27)", "group": "beidou", "lat": -54.33909371768595, "lon": -147.80560854354937, "alt_km": 21541.474702945292, "timestamp": "2025-12-26T07:29:18.720974+00:00", "meta": {"OBJECT_NAME": "BEIDOU-3 M7 (C27)", "OBJECT_ID": "2018-003A", "EPOCH": "2025-12-23T05:31:08.538816", "MEAN_MOTION": 1.86232625, "ECCENTRICITY": 0.0002961, "INCLINATION": 54.4874, "RA_OF_ASC_NODE": 308.4506, "ARG_OF_PERICENTER": 66.5422, "MEAN_ANOMALY": 293.4915, "EPHEMERIS_TYPE": 0, "CLASSIFICATION_TYPE": "U", "NORAD_CAT_ID": 43107, "ELEMENT_SET_NO": 999, "REV_AT_EPOCH": 5407, "BSTAR": 0, "MEAN_MOTION_DOT": -5.5e-07, "MEAN_MOTION_DDOT": 0}, "tle": {"line1": "1 43107U 18003A   25357.22995994 -.00000055  00000+0  00000+0 0  9997", "line2": "2 43107  54.4874 308.4506 0002961  66.5422 293.4915  1.86232625 54072"}}, "geometry": {"type": "Point", "coordinates": [-147.80560854354937, -54.33909371768595]}}]}